NORAD_CAT_ID,OBJECT_NAME,OBJECT_TYPE,EPOCH,MEAN_MOTION,ECCENTRICITY,INCLINATION,RA_OF_ASC_NODE,ARG_OF_PERICENTER,MEAN_ANOMALY,BSTAR,MEAN_MOTION_DOT,MEAN_MOTION_DDOT,TLE_LINE0,TLE_LINE1,TLE_LINE2,SEMIMAJOR_AXIS,PERIOD,APOGEE,PERIGEE,DECAYED
53436.0,STARLINK-4527,PAYLOAD,2024-06-06 02:58:25,15.08833426,0.0001583,53.218,103.9055,85.9489,274.1684,7.4548e-05,8.98e-06,0.0,0 STARLINK-4527,1 53436U 22097BA  24158.12390336  .00000898  00000-0  74548-4 0  9995,2 53436  53.2180 103.9055 0001583  85.9489 274.1684 15.08833426101931,6917.9,95.438,540.861,538.67,0.0
53436.0,STARLINK-4527,PAYLOAD,2024-06-07 20:18:26,15.08832846,0.000138,53.2157,96.1722,93.6717,266.4433,0.00010502,1.384e-05,0.0,0 STARLINK-4527,1 53436U 22097BA  24159.84613969  .00001384  00000-0  10502-3 0  9995,2 53436  53.2157  96.1722 0001380  93.6717 266.4433 15.08832846101711,6917.902,95.438,540.722,538.813,0.0
53436.0,STARLINK-4527,PAYLOAD,2024-06-08 02:39:58,15.08843517,0.0001174,53.2152,94.9836,92.1228,267.9898,0.00023733,3.492e-05,0.0,0 STARLINK-4527,1 53436U 22097BA  24160.11109327  .00003492  00000-0  23733-3 0  9997,2 53436  53.2152  94.9836 0001174  92.1228 267.9898 15.08843517101752,6917.87,95.437,540.547,538.922,0.0
53436.0,STARLINK-4527,PAYLOAD,2024-06-08 12:12:17,15.08842905,0.0001404,53.2165,93.2001,90.2885,269.8268,0.00011135,1.485e-05,0.0,0 STARLINK-4527,1 53436U 22097BA  24160.50853500  .00001485  00000-0  11135-3 0  9992,2 53436  53.2165  93.2001 0001404  90.2885 269.8268 15.08842905102298,6917.872,95.437,540.708,538.765,0.0
53436.0,STARLINK-4527,PAYLOAD,2024-06-08 20:09:13,15.08830399,0.0001865,53.216,91.7127,87.5171,272.6034,0.00010072,1.315e-05,0.0,0 STARLINK-4527,1 53436U 22097BA  24160.83974218  .00001315  00000-0  10072-3 0  9999,2 53436  53.2160  91.7127 0001865  87.5171 272.6034 15.08830399101862,6917.91,95.438,541.065,538.485,0.0
53436.0,STARLINK-4527,PAYLOAD,2024-06-09 02:30:46,15.08831837,0.000142,53.218,90.5259,96.723,263.3924,0.0001054,1.39e-05,0.0,0 STARLINK-4527,1 53436U 22097BA  24161.10470188  .00001390  00000-0  10540-3 0  9990,2 53436  53.2180  90.5259 0001420  96.7230 263.3924 15.08831837102383,6917.905,95.438,540.753,538.788,0.0
53436.0,STARLINK-4527,PAYLOAD,2024-06-09 23:10:47,15.08840292,0.00015,53.2183,86.6607,98.19,261.9262,0.00013263,1.823e-05,0.0,0 STARLINK-4527,1 53436U 22097BA  24161.96582328  .00001823  00000-0  13263-3 0  9990,2 53436  53.2183  86.6607 0001500  98.1900 261.9262 15.08840292102517,6917.879,95.438,540.782,538.707,0.0
53436.0,STARLINK-4527,PAYLOAD,2024-06-10 03:56:56,15.08846593,0.0001507,53.218,85.7688,97.5203,262.596,0.00039674,6.033e-05,0.0,0 STARLINK-4527,1 53436U 22097BA  24162.16454216  .00006033  00000-0  39674-3 0  9999,2 53436  53.2180  85.7688 0001507  97.5203 262.5960 15.08846593102061,6917.86,95.437,540.768,538.683,0.0
53436.0,STARLINK-4527,PAYLOAD,2024-06-10 11:53:52,15.08844965,0.0001739,53.2172,84.2772,80.3064,279.8124,0.00039053,5.934e-05,0.0,0 STARLINK-4527,1 53436U 22097BA  24162.49574457  .00005934  00000-0  39053-3 0  9995,2 53436  53.2172  84.2772 0001739  80.3064 279.8124 15.08844965102594,6917.865,95.437,540.933,538.527,0.0
53436.0,STARLINK-4527,PAYLOAD,2024-06-10 23:01:34,15.08843194,0.0001965,53.2185,82.1958,79.1729,280.9484,0.00025748,3.812e-05,0.0,0 STARLINK-4527,1 53436U 22097BA  24162.95942593  .00003812  00000-0  25748-3 0  9995,2 53436  53.2185  82.1958 0001965  79.1729 280.9484 15.08843194102669,6917.871,95.437,541.095,538.376,0.0
53436.0,STARLINK-4527,PAYLOAD,2024-06-11 03:47:43,15.08842118,0.0001763,53.2175,81.3044,84.6101,275.5092,0.00021642,3.158e-05,0.0,0 STARLINK-4527,1 53436U 22097BA  24163.15814533  .00003158  00000-0  21642-3 0  9992,2 53436  53.2175  81.3044 0001763  84.6101 275.5092 15.08842118102217,6917.874,95.437,540.959,538.519,0.0
53436.0,STARLINK-4527,PAYLOAD,2024-06-11 11:44:39,15.08849152,0.0001446,53.2163,79.8215,87.6497,272.4661,0.00029808,4.46e-05,0.0,0 STARLINK-4527,1 53436U 22097BA  24163.48934222  .00004460  00000-0  29808-3 0  9995,2 53436  53.2163  79.8215 0001446  87.6497 272.4661 15.08849152102746,6917.852,95.437,540.718,538.717,0.0
53436.0,STARLINK-4527,PAYLOAD,2024-06-12 00:27:43,15.08850517,0.000142,53.216,77.4399,90.6112,269.5043,0.00021866,3.195e-05,0.0,0 STARLINK-4527,1 53436U 22097BA  24164.01925889  .00003195  00000-0  21866-3 0  9994,2 53436  53.2160  77.4399 0001420  90.6112 269.5043 15.08850517102827,6917.848,95.437,540.696,538.731,0.0
53436.0,STARLINK-4527,PAYLOAD,2024-06-12 11:35:26,15.08845456,0.000155,53.2163,75.3582,81.5296,278.5872,0.00011323,1.515e-05,0.0,0 STARLINK-4527,1 53436U 22097BA  24164.48294041  .00001515  00000-0  11323-3 0  9995,2 53436  53.2163  75.3582 0001550  81.5296 278.5872 15.08845456102418,6917.864,95.437,540.801,538.656,0.0
53436.0,STARLINK-4527,PAYLOAD,2024-06-13 03:29:17,15.08839594,0.0001598,53.2182,72.3802,102.796,257.3211,-2.6459e-05,-7.09e-06,0.0,0 STARLINK-4527,1 53436U 22097BA  24165.14534411 -.00000709  00000-0 -26459-4 0  9990,2 53436  53.2182  72.3802 0001598 102.7960 257.3211 15.08839594102516,6917.882,95.438,540.852,538.641,0.0
53436.0,STARLINK-4527,PAYLOAD,2024-06-13 11:26:13,15.08838809,0.000154,53.2183,70.894,107.6831,252.4329,4.3065e-05,3.97e-06,0.0,0 STARLINK-4527,1 53436U 22097BA  24165.47654511  .00000397  00000-0  43065-4 0  9993,2 53436  53.2183  70.8940 0001540 107.6831 252.4329 15.08838809103044,6917.884,95.438,540.814,538.684,0.0
53436.0,STARLINK-4527,PAYLOAD,2024-06-13 22:33:55,15.08847282,0.0001572,53.2186,68.8119,104.8448,255.2718,0.00015842,2.235e-05,0.0,0 STARLINK-4527,1 53436U 22097BA  24165.94022076  .00002235  00000-0  15842-3 0  9994,2 53436  53.2186  68.8119 0001572 104.8448 255.2718 15.08847282103116,6917.858,95.437,540.811,538.636,0.0
53436.0,STARLINK-4527,PAYLOAD,2024-06-14 00:09:18,15.08851269,0.0001622,53.2183,68.5143,109.0878,251.029,9.6417e-05,1.247e-05,0.0,0 STARLINK-4527,1 53436U 22097BA  24166.00645846  .00001247  00000-0  96417-4 0  9998,2 53436  53.2183  68.5143 0001622 109.0878 251.0290 15.08851269103127,6917.846,95.437,540.833,538.589,0.0
53436.0,STARLINK-4527,PAYLOAD,2024-06-14 22:24:42,15.0883954,0.0001441,53.2165,64.3535,94.9375,265.1781,0.00018068,2.589e-05,0.0,0 STARLINK-4527,1 53436U 22097BA  24166.93382617  .00002589  00000-0  18068-3 0  9999,2 53436  53.2165  64.3535 0001441  94.9375 265.1781 15.08839540103263,6917.882,95.438,540.744,538.75,0.0
53436.0,STARLINK-4527,PAYLOAD,2024-06-15 00:00:05,15.08843189,0.0001395,53.2167,64.0554,93.1842,266.9309,0.00015764,2.222e-05,0.0,0 STARLINK-4527,1 53436U 22097BA  24167.00006410  .00002222  00000-0  15764-3 0  9996,2 53436  53.2167  64.0554 0001395  93.1842 266.9309 15.08843189103271,6917.871,95.437,540.701,538.771,0.0
53436.0,STARLINK-4527,PAYLOAD,2024-06-15 22:15:29,15.08839576,0.0001441,53.2178,59.8972,97.0892,263.0264,3.2173e-05,2.24e-06,0.0,0 STARLINK-4527,1 53436U 22097BA  24167.92742668  .00000224  00000-0  32173-4 0  9993,2 53436  53.2178  59.8972 0001441  97.0892 263.0264 15.08839576103418,6917.882,95.438,540.744,538.75,0.0
53436.0,STARLINK-4527,PAYLOAD,2024-06-16 09:23:12,15.08831141,9.65e-05,53.2143,57.8134,77.6739,282.4361,-4.2115e-05,-9.58e-06,0.0,0 STARLINK-4527,1 53436U 22097BA  24168.39111288 -.00000958  00000-0 -42115-4 0  9996,2 53436  53.2143  57.8134 0000965  77.6739 282.4361 15.08831141103482,6917.907,95.438,540.44,539.105,0.0
53436.0,STARLINK-4527,PAYLOAD,2024-06-16 22:06:18,15.08818633,0.0001478,53.2194,55.4389,104.6795,255.4361,-7.1766e-05,-1.429e-05,0.0,0 STARLINK-4527,1 53436U 22097BA  24168.92105295 -.00001429  00000-0 -71766-4 0  9994,2 53436  53.2194  55.4389 0001478 104.6795 255.4361 15.08818633103567,6917.946,95.439,540.833,538.788,0.0
53436.0,STARLINK-4527,PAYLOAD,2024-06-17 20:21:41,15.08840859,6.98e-05,53.2179,51.2691,74.7539,285.353,0.00013243,1.821e-05,0.0,0 STARLINK-4527,1 53436U 22097BA  24169.84839780  .00001821  00000-0  13243-3 0  9998,2 53436  53.2179  51.2691 0000698  74.7539 285.3530 15.08840859103224,6917.878,95.438,540.226,539.26,0.0
53436.0,STARLINK-4527,PAYLOAD,2024-06-17 21:57:04,15.08845879,9.75e-05,53.2159,50.9709,87.6595,272.4509,0.00017525,2.503e-05,0.0,0 STARLINK-4527,1 53436U 22097BA  24169.91463430  .00002503  00000-0  17525-3 0  9996,2 53436  53.2159  50.9709 0000975  87.6595 272.4509 15.08845879103715,6917.862,95.437,540.402,539.053,0.0
53436.0,STARLINK-4527,PAYLOAD,2024-06-18 02:43:13,15.08855457,0.0001315,53.2183,50.0853,95.8534,264.2608,0.00043588,6.659e-05,0.0,0 STARLINK-4527,1 53436U 22097BA  24170.11335379  .00006659  00000-0  43588-3 0  9994,2 53436  53.2183  50.0853 0001315  95.8534 264.2608 15.08855457103268,6917.833,95.437,540.608,538.788,0.0
53436.0,STARLINK-4527,PAYLOAD,2024-06-18 09:04:46,15.08851235,0.0001368,53.2181,48.8906,81.2324,278.8823,0.00020907,3.042e-05,0.0,0 STARLINK-4527,1 53436U 22097BA  24170.37831490  .00003042  00000-0  20907-3 0  9990,2 53436  53.2181  48.8906 0001368  81.2324 278.8823 15.08851235103309,6917.846,95.437,540.657,538.765,0.0
53436.0,STARLINK-4527,PAYLOAD,2024-06-18 20:12:28,15.08843675,0.0001048,53.2168,46.8082,72.9816,287.1291,0.00038324,5.817e-05,0.0,0 STARLINK-4527,1 53436U 22097BA  24170.84199827  .00005817  00000-0  38324-3 0  9997,2 53436  53.2168  46.8082 0001048  72.9816 287.1291 15.08843675103373,6917.869,95.437,540.459,539.009,0.0
53436.0,STARLINK-4527,PAYLOAD,2024-06-19 00:58:37,15.08854466,0.0001449,53.2185,45.9161,83.6905,276.4253,0.00037284,5.653e-05,0.0,0 STARLINK-4527,1 53436U 22097BA  24171.04071202  .00005653  00000-0  37284-3 0  9998,2 53436  53.2185  45.9161 0001449  83.6905 276.4253 15.08854466103406,6917.836,95.437,540.704,538.699,0.0
53436.0,STARLINK-4527,PAYLOAD,2024-06-19 08:55:33,15.08845353,0.0001359,53.2175,44.4328,86.8176,273.2971,0.00010575,1.396e-05,0.0,0 STARLINK-4527,1 53436U 22097BA  24171.37191464  .00001396  00000-0  10575-3 0  9991,2 53436  53.2175  44.4328 0001359  86.8176 273.2971 15.08845353103451,6917.864,95.437,540.669,538.789,0.0
